[
  {
    "COMMENT": "GENERATED VIA SPACETRACK.ORG API",
    "ORIGINATOR": "18 SPCS",
    "NORAD_CAT_ID": "33105",
    "OBJECT_NAME": "JASON 2",
    "OBJECT_TYPE": "PAYLOAD",
    "CLASSIFICATION_TYPE": "U",
    "INTLDES": "08032A",
    "EPOCH": "2023-05-21 18:14:00",
    "EPOCH_MICROSECONDS": "301344",
    "MEAN_MOTION": "12.87658942",
    "ECCENTRICITY": "0.0008147",
    "INCLINATION": "66.0394",
    "RA_OF_ASC_NODE": "251.0105",
    "ARG_OF_PERICENTER": "270.5919",
    "MEAN_ANOMALY": "255.1358",
    "EPHEMERIS_TYPE": "0",
    "ELEMENT_SET_NO": "999",
    "REV_AT_EPOCH": "69918",
    "BSTAR": "-0.00002402",
    "MEAN_MOTION_DOT": "-0.00000068",
    "MEAN_MOTION_DDOT": "0",
    "FILE": "3914061",
    "TLE_LINE0": "0 JASON 2",
    "TLE_LINE1": "1 33105U 08032A   23141.75972571 -.00000068  00000-0 -24020-4 0  9997",
    "TLE_LINE2": "2 33105  66.0394 251.0105 0008147 270.5919 255.1358 12.87658942699183",
    "OBJECT_ID": "2008-032A",
    "OBJECT_NUMBER": "33105",
    "SEMIMAJOR_AXIS": "7688.966",
    "PERIOD": "111.831",
    "APOGEE": "1317.095",
    "PERIGEE": "1304.567",
    "DECAYED": "0"
  },
  {
    "COMMENT": "GENERATED VIA SPACETRACK.ORG API",
    "ORIGINATOR": "18 SPCS",
    "NORAD_CAT_ID": "33105",
    "OBJECT_NAME": "JASON 2",
    "OBJECT_TYPE": "PAYLOAD",
    "CLASSIFICATION_TYPE": "U",
    "INTLDES": "08032A",
    "EPOCH": "2023-05-22 13:56:34",
    "EPOCH_MICROSECONDS": "931040",
    "MEAN_MOTION": "12.87658972",
    "ECCENTRICITY": "0.0008149",
    "INCLINATION": "66.0394",
    "RA_OF_ASC_NODE": "249.2839",
    "ARG_OF_PERICENTER": "270.5298",
    "MEAN_ANOMALY": "101.7126",
    "EPHEMERIS_TYPE": "0",
    "ELEMENT_SET_NO": "999",
    "REV_AT_EPOCH": "69929",
    "BSTAR": "-0.0000024712",
    "MEAN_MOTION_DOT": "-0.00000063",
    "MEAN_MOTION_DDOT": "0",
    "FILE": "3914693",
    "TLE_LINE0": "0 JASON 2",
    "TLE_LINE1": "1 33105U 08032A   23142.58095985 -.00000063  00000-0 -24712-5 0  9998",
    "TLE_LINE2": "2 33105  66.0394 249.2839 0008149 270.5298 101.7126 12.87658972699292",
    "OBJECT_ID": "2008-032A",
    "OBJECT_NUMBER": "33105",
    "SEMIMAJOR_AXIS": "7688.966",
    "PERIOD": "111.831",
    "APOGEE": "1317.097",
    "PERIGEE": "1304.565",
    "DECAYED": "0"
  },
  {
    "COMMENT": "GENERATED VIA SPACETRACK.ORG API",
    "ORIGINATOR": "18 SPCS",
    "NORAD_CAT_ID": "33105",
    "OBJECT_NAME": "JASON 2",
    "OBJECT_TYPE": "PAYLOAD",
    "CLASSIFICATION_TYPE": "U",
    "INTLDES": "08032A",
    "EPOCH": "2023-05-22 16:16:37",
    "EPOCH_MICROSECONDS": "482240",
    "MEAN_MOTION": "12.87658986",
    "ECCENTRICITY": "0.0008146",
    "INCLINATION": "66.0395",
    "RA_OF_ASC_NODE": "249.0794",
    "ARG_OF_PERICENTER": "270.5372",
    "MEAN_ANOMALY": "192.4782",
    "EPHEMERIS_TYPE": "0",
    "ELEMENT_SET_NO": "999",
    "REV_AT_EPOCH": "69939",
    "BSTAR": "0.0000052757",
    "MEAN_MOTION_DOT": "-0.00000061",
    "MEAN_MOTION_DDOT": "0",
    "FILE": "3914729",
    "TLE_LINE0": "0 JASON 2",
    "TLE_LINE1": "1 33105U 08032A   23142.67821160 -.00000061  00000-0  52757-5 0  9997",
    "TLE_LINE2": "2 33105  66.0395 249.0794 0008146 270.5372 192.4782 12.87658986699392",
    "OBJECT_ID": "2008-032A",
    "OBJECT_NUMBER": "33105",
    "SEMIMAJOR_AXIS": "7688.966",
    "PERIOD": "111.831",
    "APOGEE": "1317.094",
    "PERIGEE": "1304.567",
    "DECAYED": "0"
  },
  {
    "COMMENT": "GENERATED VIA SPACETRACK.ORG API",
    "ORIGINATOR": "18 SPCS",
    "NORAD_CAT_ID": "33105",
    "OBJECT_NAME": "JASON 2",
    "OBJECT_TYPE": "PAYLOAD",
    "CLASSIFICATION_TYPE": "U",
    "INTLDES": "08032A",
    "EPOCH": "2023-05-22 16:16:37",
    "EPOCH_MICROSECONDS": "482240",
    "MEAN_MOTION": "12.87658986",
    "ECCENTRICITY": "0.0008146",
    "INCLINATION": "66.0395",
    "RA_OF_ASC_NODE": "249.0794",
    "ARG_OF_PERICENTER": "270.5372",
    "MEAN_ANOMALY": "192.4782",
    "EPHEMERIS_TYPE": "0",
    "ELEMENT_SET_NO": "999",
    "REV_AT_EPOCH": "69930",
    "BSTAR": "0.0000052757",
    "MEAN_MOTION_DOT": "-0.00000061",
    "MEAN_MOTION_DDOT": "0",
    "FILE": "3914964",
    "TLE_LINE0": "0 JASON 2",
    "TLE_LINE1": "1 33105U 08032A   23142.67821160 -.00000061  00000-0  52757-5 0  9997",
    "TLE_LINE2": "2 33105  66.0395 249.0794 0008146 270.5372 192.4782 12.87658986699303",
    "OBJECT_ID": "2008-032A",
    "OBJECT_NUMBER": "33105",
    "SEMIMAJOR_AXIS": "7688.966",
    "PERIOD": "111.831",
    "APOGEE": "1317.094",
    "PERIGEE": "1304.567",
    "DECAYED": "0"
  },
  {
    "COMMENT": "GENERATED VIA SPACETRACK.ORG API",
    "ORIGINATOR": "18 SPCS",
    "NORAD_CAT_ID": "33105",
    "OBJECT_NAME": "JASON 2",
    "OBJECT_TYPE": "PAYLOAD",
    "CLASSIFICATION_TYPE": "U",
    "INTLDES": "08032A",
    "EPOCH": "2023-05-23 16:31:08",
    "EPOCH_MICROSECONDS": "436576",
    "MEAN_MOTION": "12.87659028",
    "ECCENTRICITY": "0.0008154",
    "INCLINATION": "66.0406",
    "RA_OF_ASC_NODE": "246.9554",
    "ARG_OF_PERICENTER": "270.5038",
    "MEAN_ANOMALY": "194.3497",
    "EPHEMERIS_TYPE": "0",
    "ELEMENT_SET_NO": "999",
    "REV_AT_EPOCH": "69943",
    "BSTAR": "0.00010472",
    "MEAN_MOTION_DOT": "-0.00000036",
    "MEAN_MOTION_DDOT": "0",
    "FILE": "3915766",
    "TLE_LINE0": "0 JASON 2",
    "TLE_LINE1": "1 33105U 08032A   23143.68829209 -.00000036  00000-0  10472-3 0  9999",
    "TLE_LINE2": "2 33105  66.0406 246.9554 0008154 270.5038 194.3497 12.87659028699430",
    "OBJECT_ID": "2008-032A",
    "OBJECT_NUMBER": "33105",
    "SEMIMAJOR_AXIS": "7688.966",
    "PERIOD": "111.831",
    "APOGEE": "1317.100",
    "PERIGEE": "1304.561",
    "DECAYED": "0"
  },
  {
    "COMMENT": "GENERATED VIA SPACETRACK.ORG API",
    "ORIGINATOR": "18 SPCS",
    "NORAD_CAT_ID": "33105",
    "OBJECT_NAME": "JASON 2",
    "OBJECT_TYPE": "PAYLOAD",
    "CLASSIFICATION_TYPE": "U",
    "INTLDES": "08032A",
    "EPOCH": "2023-05-24 14:50:48",
    "EPOCH_MICROSECONDS": "647904",
    "MEAN_MOTION": "12.87659052",
    "ECCENTRICITY": "0.0008159",
    "INCLINATION": "66.0406",
    "RA_OF_ASC_NODE": "244.9994",
    "ARG_OF_PERICENTER": "270.4762",
    "MEAN_ANOMALY": "186.5478",
    "EPHEMERIS_TYPE": "0",
    "ELEMENT_SET_NO": "999",
    "REV_AT_EPOCH": "69955",
    "BSTAR": "0.000077094",
    "MEAN_MOTION_DOT": "-0.00000043",
    "MEAN_MOTION_DDOT": "0",
    "FILE": "3916549",
    "TLE_LINE0": "0 JASON 2",
    "TLE_LINE1": "1 33105U 08032A   23144.61861861 -.00000043  00000-0  77094-4 0  9995",
    "TLE_LINE2": "2 33105  66.0406 244.9994 0008159 270.4762 186.5478 12.87659052699556",
    "OBJECT_ID": "2008-032A",
    "OBJECT_NUMBER": "33105",
    "SEMIMAJOR_AXIS": "7688.966",
    "PERIOD": "111.831",
    "APOGEE": "1317.104",
    "PERIGEE": "1304.557",
    "DECAYED": "0"
  },
  {
    "COMMENT": "GENERATED VIA SPACETRACK.ORG API",
    "ORIGINATOR": "18 SPCS",
    "NORAD_CAT_ID": "33105",
    "OBJECT_NAME": "JASON 2",
    "OBJECT_TYPE": "PAYLOAD",
    "CLASSIFICATION_TYPE": "U",
    "INTLDES": "08032A",
    "EPOCH": "2023-05-25 17:13:47",
    "EPOCH_MICROSECONDS": "530272",
    "MEAN_MOTION": "12.87659148",
    "ECCENTRICITY": "0.0008175",
    "INCLINATION": "66.0405",
    "RA_OF_ASC_NODE": "242.6881",
    "ARG_OF_PERICENTER": "270.4399",
    "MEAN_ANOMALY": "241.9328",
    "EPHEMERIS_TYPE": "0",
    "ELEMENT_SET_NO": "999",
    "REV_AT_EPOCH": "69978",
    "BSTAR": "0.000068457",
    "MEAN_MOTION_DOT": "-0.00000045",
    "MEAN_MOTION_DDOT": "0",
    "FILE": "3916810",
    "TLE_LINE0": "0 JASON 2",
    "TLE_LINE1": "1 33105U 08032A   23145.71791123 -.00000045  00000-0  68457-4 0  9995",
    "TLE_LINE2": "2 33105  66.0405 242.6881 0008175 270.4399 241.9328 12.87659148699780",
    "OBJECT_ID": "2008-032A",
    "OBJECT_NUMBER": "33105",
    "SEMIMAJOR_AXIS": "7688.965",
    "PERIOD": "111.831",
    "APOGEE": "1317.116",
    "PERIGEE": "1304.544",
    "DECAYED": "0"
  },
  {
    "COMMENT": "GENERATED VIA SPACETRACK.ORG API",
    "ORIGINATOR": "18 SPCS",
    "NORAD_CAT_ID": "33105",
    "OBJECT_NAME": "JASON 2",
    "OBJECT_TYPE": "PAYLOAD",
    "CLASSIFICATION_TYPE": "U",
    "INTLDES": "08032A",
    "EPOCH": "2023-05-25 17:13:47",
    "EPOCH_MICROSECONDS": "530272",
    "MEAN_MOTION": "12.87659148",
    "ECCENTRICITY": "0.0008175",
    "INCLINATION": "66.0405",
    "RA_OF_ASC_NODE": "242.6881",
    "ARG_OF_PERICENTER": "270.4399",
    "MEAN_ANOMALY": "241.9328",
    "EPHEMERIS_TYPE": "0",
    "ELEMENT_SET_NO": "999",
    "REV_AT_EPOCH": "69969",
    "BSTAR": "0.000068457",
    "MEAN_MOTION_DOT": "-0.00000045",
    "MEAN_MOTION_DDOT": "0",
    "FILE": "3917122",
    "TLE_LINE0": "0 JASON 2",
    "TLE_LINE1": "1 33105U 08032A   23145.71791123 -.00000045  00000-0  68457-4 0  9995",
    "TLE_LINE2": "2 33105  66.0405 242.6881 0008175 270.4399 241.9328 12.87659148699690",
    "OBJECT_ID": "2008-032A",
    "OBJECT_NUMBER": "33105",
    "SEMIMAJOR_AXIS": "7688.965",
    "PERIOD": "111.831",
    "APOGEE": "1317.116",
    "PERIGEE": "1304.544",
    "DECAYED": "0"
  }
]